[{"OBJECT_NAME":"TIANMU-1 22","OBJECT_ID":"2023-208D","EPOCH":"2026-03-09T22:39:05.738688","MEAN_MOTION":15.29457749,"ECCENTRICITY":0.00031332,"INCLINATION":97.4379,"RA_OF_ASC_NODE":184.9419,"ARG_OF_PERICENTER":351.9312,"MEAN_ANOMALY":8.1877,"EPHEMERIS_TYPE":0,"CLASSIFICATION_TYPE":"U","NORAD_CAT_ID":58663,"ELEMENT_SET_NO":999,"REV_AT_EPOCH":12215,"BSTAR":0.00038239675,"MEAN_MOTION_DOT":0.00010851,"MEAN_MOTION_DDOT":0},{"OBJECT_NAME":"STARLINK-34173","OBJECT_ID":"2025-113AC","EPOCH":"2026-03-09T06:56:50.123328","MEAN_MOTION":15.30190549,"ECCENTRICITY":0.00012565,"INCLINATION":53.1578,"RA_OF_ASC_NODE":93.001,"ARG_OF_PERICENTER":99.243,"MEAN_ANOMALY":260.8713,"EPHEMERIS_TYPE":0,"CLASSIFICATION_TYPE":"U","NORAD_CAT_ID":64196,"ELEMENT_SET_NO":999,"REV_AT_EPOCH":4500,"BSTAR":0.00040088068,"MEAN_MOTION_DOT":0.00011529,"MEAN_MOTION_DDOT":0}]
